[{"OBJECT_NAME":"KUIPER-00051","OBJECT_ID":"2025-134M","EPOCH":"2026-03-09T14:55:00.456384","MEAN_MOTION":14.83775882,"ECCENTRICITY":6.43e-5,"INCLINATION":51.9006,"RA_OF_ASC_NODE":226.0794,"ARG_OF_PERICENTER":101.5972,"MEAN_ANOMALY":258.5064,"EPHEMERIS_TYPE":0,"CLASSIFICATION_TYPE":"U","NORAD_CAT_ID":64511,"ELEMENT_SET_NO":999,"REV_AT_EPOCH":4016,"BSTAR":0.00067322,"MEAN_MOTION_DOT":5.404e-5,"MEAN_MOTION_DDOT":0},{"OBJECT_NAME":"SL-14 R\/B","OBJECT_ID":"1983-061B","EPOCH":"2026-03-09T18:04:19.471296","MEAN_MOTION":14.85668739,"ECCENTRICITY":0.00192564,"INCLINATION":82.5212,"RA_OF_ASC_NODE":161.2727,"ARG_OF_PERICENTER":255.7686,"MEAN_ANOMALY":104.1392,"EPHEMERIS_TYPE":0,"CLASSIFICATION_TYPE":"U","NORAD_CAT_ID":14148,"ELEMENT_SET_NO":999,"REV_AT_EPOCH":28640,"BSTAR":7.0594723e-5,"MEAN_MOTION_DOT":6.37e-6,"MEAN_MOTION_DDOT":0}]
